[{"CCSDS_OMM_VERS":"3.0","COMMENT":"GENERATED VIA SPACE-TRACK.ORG API","CREATION_DATE":"2026-05-16T17:43:08","ORIGINATOR":"18 SPCS","OBJECT_NAME":"SCOUT A DEB","OBJECT_ID":"1966-005F","CENTER_NAME":"EARTH","REF_FRAME":"TEME","TIME_SYSTEM":"UTC","MEAN_ELEMENT_THEORY":"SGP4","EPOCH":"2026-05-16T09:52:39.175392","MEAN_MOTION":"14.00622810","ECCENTRICITY":"0.01079967","INCLINATION":"89.6590","RA_OF_ASC_NODE":"285.4442","ARG_OF_PERICENTER":"353.5507","MEAN_ANOMALY":"6.4274","EPHEMERIS_TYPE":"0","CLASSIFICATION_TYPE":"U","NORAD_CAT_ID":"2989","ELEMENT_SET_NO":"999","REV_AT_EPOCH":"99255","BSTAR":"0.00014708152000","MEAN_MOTION_DOT":"0.00000241","MEAN_MOTION_DDOT":"0.0000000000000","SEMIMAJOR_AXIS":"7269.776","PERIOD":"102.811","APOAPSIS":"970.152","PERIAPSIS":"813.130","OBJECT_TYPE":"DEBRIS","RCS_SIZE":"SMALL","COUNTRY_CODE":"US","LAUNCH_DATE":"1966-01-28","SITE":"AFWTR","DECAY_DATE":null,"FILE":"5196581","GP_ID":"323457904","TLE_LINE0":"0 SCOUT A DEB","TLE_LINE1":"1 02989U 66005F   26136.41156453  .00000241  00000-0  14708-3 0  9992","TLE_LINE2":"2 02989  89.6590 285.4442 0107997 353.5507   6.4274 14.00622810992554"},{"CCSDS_OMM_VERS":"3.0","COMMENT":"GENERATED VIA SPACE-TRACK.ORG API","CREATION_DATE":"2026-05-16T19:46:19","ORIGINATOR":"18 SPCS","OBJECT_NAME":"SCOUT A DEB","OBJECT_ID":"1967-092C","CENTER_NAME":"EARTH","REF_FRAME":"TEME","TIME_SYSTEM":"UTC","MEAN_ELEMENT_THEORY":"SGP4","EPOCH":"2026-05-16T13:27:17.015040","MEAN_MOTION":"13.97428659","ECCENTRICITY":"0.00869780","INCLINATION":"89.4367","RA_OF_ASC_NODE":"347.1592","ARG_OF_PERICENTER":"307.1733","MEAN_ANOMALY":"52.1525","EPHEMERIS_TYPE":"0","CLASSIFICATION_TYPE":"U","NORAD_CAT_ID":"2994","ELEMENT_SET_NO":"999","REV_AT_EPOCH":"97036","BSTAR":"0.00018551000000","MEAN_MOTION_DOT":"0.00000280","MEAN_MOTION_DDOT":"0.0000000000000","SEMIMAJOR_AXIS":"7280.850","PERIOD":"103.046","APOAPSIS":"966.042","PERIAPSIS":"839.388","OBJECT_TYPE":"DEBRIS","RCS_SIZE":"SMALL","COUNTRY_CODE":"US","LAUNCH_DATE":"1967-09-25","SITE":"AFWTR","DECAY_DATE":null,"FILE":"5196697","GP_ID":"323493310","TLE_LINE0":"0 SCOUT A DEB","TLE_LINE1":"1  2994U 67092C   26136.56061360  .00000280  00000-0  18551-3 0  9996","TLE_LINE2":"2  2994  89.4367 347.1592 0086978 307.1733  52.1525 13.97428659970365"},{"CCSDS_OMM_VERS":"3.0","COMMENT":"GENERATED VIA SPACE-TRACK.ORG API","CREATION_DATE":"2026-05-13T10:18:27","ORIGINATOR":"18 SPCS","OBJECT_NAME":"WESTFORD NEEDLES","OBJECT_ID":"1963-014AU","CENTER_NAME":"EARTH","REF_FRAME":"TEME","TIME_SYSTEM":"UTC","MEAN_ELEMENT_THEORY":"SGP4","EPOCH":"2026-05-13T01:06:45.226656","MEAN_MOTION":"8.78111127","ECCENTRICITY":"0.09721198","INCLINATION":"86.7772","RA_OF_ASC_NODE":"169.2386","ARG_OF_PERICENTER":"276.0380","MEAN_ANOMALY":"73.0709","EPHEMERIS_TYPE":"0","CLASSIFICATION_TYPE":"U","NORAD_CAT_ID":"2997","ELEMENT_SET_NO":"999","REV_AT_EPOCH":"31338","BSTAR":"0.09379676800000","MEAN_MOTION_DOT":"0.00000371","MEAN_MOTION_DDOT":"0.0000000000000","SEMIMAJOR_AXIS":"9924.353","PERIOD":"163.988","APOAPSIS":"4510.984","PERIAPSIS":"2581.452","OBJECT_TYPE":"DEBRIS","RCS_SIZE":"MEDIUM","COUNTRY_CODE":"US","LAUNCH_DATE":"1963-05-09","SITE":"AFWTR","DECAY_DATE":null,"FILE":"5194262","GP_ID":"323205354","TLE_LINE0":"0 WESTFORD NEEDLES","TLE_LINE1":"1 02997U 63014AU  26133.04635679  .00000371  00000-0  93797-1 0  9993","TLE_LINE2":"2 02997  86.7772 169.2386 0972120 276.0380  73.0709  8.78111127313388"},{"CCSDS_OMM_VERS":"3.0","COMMENT":"GENERATED VIA SPACE-TRACK.ORG API","CREATION_DATE":"2026-05-16T17:43:08","ORIGINATOR":"18 SPCS","OBJECT_NAME":"ATS 3","OBJECT_ID":"1967-111A","CENTER_NAME":"EARTH","REF_FRAME":"TEME","TIME_SYSTEM":"UTC","MEAN_ELEMENT_THEORY":"SGP4","EPOCH":"2026-05-16T13:54:31.448160","MEAN_MOTION":"1.00272044","ECCENTRICITY":"0.00155292","INCLINATION":"3.0983","RA_OF_ASC_NODE":"78.7348","ARG_OF_PERICENTER":"31.4607","MEAN_ANOMALY":"227.4776","EPHEMERIS_TYPE":"0","CLASSIFICATION_TYPE":"U","NORAD_CAT_ID":"3029","ELEMENT_SET_NO":"999","REV_AT_EPOCH":"21431","BSTAR":"0.00000000000000","MEAN_MOTION_DOT":"-0.00000078","MEAN_MOTION_DDOT":"0.0000000000000","SEMIMAJOR_AXIS":"42164.659","PERIOD":"1436.093","APOAPSIS":"35852.003","PERIAPSIS":"35721.046","OBJECT_TYPE":"PAYLOAD","RCS_SIZE":"LARGE","COUNTRY_CODE":"US","LAUNCH_DATE":"1967-11-05","SITE":"AFETR","DECAY_DATE":null,"FILE":"5196581","GP_ID":"323457405","TLE_LINE0":"0 ATS 3","TLE_LINE1":"1 03029U 67111A   26136.57953065 -.00000078  00000-0  00000-0 0  9994","TLE_LINE2":"2 03029   3.0983  78.7348 0015529  31.4607 227.4776  1.00272044214315"},{"CCSDS_OMM_VERS":"3.0","COMMENT":"GENERATED VIA SPACE-TRACK.ORG API","CREATION_DATE":"2026-05-16T19:46:19","ORIGINATOR":"18 SPCS","OBJECT_NAME":"ESSA 6 (TOS-D)","OBJECT_ID":"1967-114A","CENTER_NAME":"EARTH","REF_FRAME":"TEME","TIME_SYSTEM":"UTC","MEAN_ELEMENT_THEORY":"SGP4","EPOCH":"2026-05-16T12:38:10.070016","MEAN_MOTION":"12.54249152","ECCENTRICITY":"0.00489180","INCLINATION":"102.0123","RA_OF_ASC_NODE":"241.0268","ARG_OF_PERICENTER":"183.5988","MEAN_ANOMALY":"187.7229","EPHEMERIS_TYPE":"0","CLASSIFICATION_TYPE":"U","NORAD_CAT_ID":"3035","ELEMENT_SET_NO":"999","REV_AT_EPOCH":"67864","BSTAR":"0.00000129580000","MEAN_MOTION_DOT":"-0.00000046","MEAN_MOTION_DDOT":"0.0000000000000","SEMIMAJOR_AXIS":"7824.909","PERIOD":"114.810","APOAPSIS":"1485.052","PERIAPSIS":"1408.496","OBJECT_TYPE":"PAYLOAD","RCS_SIZE":"MEDIUM","COUNTRY_CODE":"US","LAUNCH_DATE":"1967-11-10","SITE":"AFWTR","DECAY_DATE":null,"FILE":"5196698","GP_ID":"323493834","TLE_LINE0":"0 ESSA 6 (TOS-D)","TLE_LINE1":"1  3035U 67114A   26136.52650544 -.00000046  00000-0  12958-5 0  9990","TLE_LINE2":"2  3035 102.0123 241.0268 0048918 183.5988 187.7229 12.54249152678649"},{"CCSDS_OMM_VERS":"3.0","COMMENT":"GENERATED VIA SPACE-TRACK.ORG API","CREATION_DATE":"2026-05-16T19:46:19","ORIGINATOR":"18 SPCS","OBJECT_NAME":"DELTA 1 R\/B","OBJECT_ID":"1967-114B","CENTER_NAME":"EARTH","REF_FRAME":"TEME","TIME_SYSTEM":"UTC","MEAN_ELEMENT_THEORY":"SGP4","EPOCH":"2026-05-16T12:59:06.597312","MEAN_MOTION":"12.54138806","ECCENTRICITY":"0.00481110","INCLINATION":"102.0090","RA_OF_ASC_NODE":"237.2513","ARG_OF_PERICENTER":"198.7491","MEAN_ANOMALY":"172.7444","EPHEMERIS_TYPE":"0","CLASSIFICATION_TYPE":"U","NORAD_CAT_ID":"3036","ELEMENT_SET_NO":"999","REV_AT_EPOCH":"67838","BSTAR":"0.00005751100000","MEAN_MOTION_DOT":"-0.00000037","MEAN_MOTION_DDOT":"0.0000000000000","SEMIMAJOR_AXIS":"7825.368","PERIOD":"114.820","APOAPSIS":"1484.882","PERIAPSIS":"1409.584","OBJECT_TYPE":"ROCKET BODY","RCS_SIZE":"MEDIUM","COUNTRY_CODE":"US","LAUNCH_DATE":"1967-11-10","SITE":"AFWTR","DECAY_DATE":null,"FILE":"5196698","GP_ID":"323493335","TLE_LINE0":"0 DELTA 1 R\/B","TLE_LINE1":"1  3036U 67114B   26136.54104858 -.00000037  00000-0  57511-4 0  9998","TLE_LINE2":"2  3036 102.0090 237.2513 0048111 198.7491 172.7444 12.54138806678382"},{"CCSDS_OMM_VERS":"3.0","COMMENT":"GENERATED VIA SPACE-TRACK.ORG API","CREATION_DATE":"2026-05-16T17:43:08","ORIGINATOR":"18 SPCS","OBJECT_NAME":"SL-8 DEB","OBJECT_ID":"1965-020EN","CENTER_NAME":"EARTH","REF_FRAME":"TEME","TIME_SYSTEM":"UTC","MEAN_ELEMENT_THEORY":"SGP4","EPOCH":"2026-05-16T07:51:24.175296","MEAN_MOTION":"14.21929686","ECCENTRICITY":"0.03849087","INCLINATION":"56.1648","RA_OF_ASC_NODE":"89.5180","ARG_OF_PERICENTER":"91.7637","MEAN_ANOMALY":"272.7470","EPHEMERIS_TYPE":"0","CLASSIFICATION_TYPE":"U","NORAD_CAT_ID":"3038","ELEMENT_SET_NO":"999","REV_AT_EPOCH":"22128","BSTAR":"0.00133813180000","MEAN_MOTION_DOT":"0.00006164","MEAN_MOTION_DDOT":"0.0000000000000","SEMIMAJOR_AXIS":"7196.971","PERIOD":"101.271","APOAPSIS":"1095.854","PERIAPSIS":"541.818","OBJECT_TYPE":"DEBRIS","RCS_SIZE":"MEDIUM","COUNTRY_CODE":"CIS","LAUNCH_DATE":"1965-03-15","SITE":"TTMTR","DECAY_DATE":null,"FILE":"5196581","GP_ID":"323457907","TLE_LINE0":"0 SL-8 DEB","TLE_LINE1":"1 03038U 65020EN  26136.32736314  .00006164  00000-0  13381-2 0  9999","TLE_LINE2":"2 03038  56.1648  89.5180 0384909  91.7637 272.7470 14.21929686221285"},{"CCSDS_OMM_VERS":"3.0","COMMENT":"GENERATED VIA SPACE-TRACK.ORG API","CREATION_DATE":"2026-05-16T19:46:19","ORIGINATOR":"18 SPCS","OBJECT_NAME":"SL-8 DEB *","OBJECT_ID":"1965-070G","CENTER_NAME":"EARTH","REF_FRAME":"TEME","TIME_SYSTEM":"UTC","MEAN_ELEMENT_THEORY":"SGP4","EPOCH":"2026-05-16T12:34:30.811872","MEAN_MOTION":"12.44637437","ECCENTRICITY":"0.02929170","INCLINATION":"55.4294","RA_OF_ASC_NODE":"326.8805","ARG_OF_PERICENTER":"114.4303","MEAN_ANOMALY":"277.2009","EPHEMERIS_TYPE":"0","CLASSIFICATION_TYPE":"U","NORAD_CAT_ID":"3045","ELEMENT_SET_NO":"999","REV_AT_EPOCH":"68499","BSTAR":"0.00118130000000","MEAN_MOTION_DOT":"0.00000098","MEAN_MOTION_DDOT":"0.0000000000000","SEMIMAJOR_AXIS":"7865.143","PERIOD":"115.696","APOAPSIS":"1717.391","PERIAPSIS":"1256.624","OBJECT_TYPE":"DEBRIS","RCS_SIZE":"SMALL","COUNTRY_CODE":"CIS","LAUNCH_DATE":"1965-09-03","SITE":"TTMTR","DECAY_DATE":null,"FILE":"5196698","GP_ID":"323493835","TLE_LINE0":"0 SL-8 DEB *","TLE_LINE1":"1  3045U 65070G   26136.52396773  .00000098  00000-0  11813-2 0  9993","TLE_LINE2":"2  3045  55.4294 326.8805 0292917 114.4303 277.2009 12.44637437684995"}]